     2.100          NAVIGATION                              RINEX VERSION / TYPE
fic2rin                                 03/22/2010 00:29:56 PGM / RUN BY / DATE
                                                            END OF HEADER
 9 10  3 21  1 59 44.0  .112708657980D-03  .227373675443D-11  .000000000000D+00
     .500000000000D+01 -.839375000000D+02  .392087760600D-08  .303770638034D+01
    -.434182584286D-05  .207600545837D-01  .812858343124D-05  .515360379601D+04
     .718400000000D+04  .339001417160D-06 -.267210556806D+01 -.100582838058D-06
     .979909066380D+00  .228781250000D+03  .153307953087D+01 -.744459581158D-08
     .107147320259D-11  .100000000000D+01  .157600000000D+04  .000000000000D+00
     .240000000000D+01  .000000000000D+00 -.558793544769D-08  .500000000000D+01
     .228600000000D+04  .400000000000D+01
 7 10  3 21  1 59 44.0  .141095370054D-05 -.454747350886D-12  .000000000000D+00
     .180000000000D+02 -.912187500000D+02  .419981779641D-08 -.252518962223D+01
    -.465102493763D-05  .328633282334D-02  .895000994205D-05  .515372595406D+04
     .718400000000D+04 -.540167093277D-07 -.264023466007D+01 -.167638063431D-07
     .971098845593D+00  .214187500000D+03  .306113776952D+01 -.785675583685D-08
     .121433629627D-10  .100000000000D+01  .157600000000D+04  .000000000000D+00
     .240000000000D+01  .000000000000D+00 -.107102096081D-07  .180000000000D+02
     .495600000000D+04  .400000000000D+01
27 10  3 21  1 59 44.0  .135913025588D-03  .329691829393D-11  .000000000000D+00
     .250000000000D+02 -.725312500000D+02  .416053044565D-08 -.156131514887D+00
    -.387243926525D-05  .216382243671D-01  .837445259094D-05  .515365273857D+04
     .718400000000D+04 -.374391674995D-06 -.269675125678D+01 -.447034835815D-07
     .977930599878D+00  .233843750000D+03 -.144519470531D+01 -.818891252965D-08
     .642883921553D-10  .100000000000D+01  .157600000000D+04  .000000000000D+00
     .240000000000D+01  .000000000000D+00 -.419095158577D-08  .250000000000D+02
     .549600000000D+04  .400000000000D+01
22 10  3 21  1 59 44.0  .176451168954D-03 -.795807864051D-12  .000000000000D+00
     .190000000000D+02  .944062500000D+02  .514592863430D-08  .741684763862D+00
     .492110848427D-05  .510172953364D-02  .530481338501D-05  .515366159058D+04
     .718400000000D+04 -.782310962677D-07  .157512771709D+01  .260770320892D-07
     .935589348743D+00  .262750000000D+03 -.191486546460D+01 -.855607068040D-08
     .132505519387D-09  .100000000000D+01  .157600000000D+04  .000000000000D+00
     .240000000000D+01  .000000000000D+00 -.176951289177D-07  .190000000000D+02
     .582600000000D+04  .400000000000D+01
 7 10  3 21  3 59 44.0  .140769407153D-05 -.454747350886D-12  .000000000000D+00
     .190000000000D+02 -.829375000000D+02  .413195782691D-08 -.147464848642D+01
    -.440329313278D-05  .328580266796D-02  .913254916668D-05  .515372857666D+04
     .143840000000D+05  .372529029846D-07 -.264029179873D+01 -.204890966415D-07
     .971099026995D+00  .208093750000D+03  .306074257829D+01 -.790318634229D-08
     .767889128522D-10  .100000000000D+01  .157600000000D+04  .000000000000D+00
     .240000000000D+01  .000000000000D+00 -.107102096081D-07  .190000000000D+02
     .720600000000D+04  .400000000000D+01
 9 10  3 21  3 59 44.0  .112724956125D-03  .227373675443D-11  .000000000000D+00
     .360000000000D+02 -.846875000000D+02  .389801951102D-08 -.219525643946D+01
    -.422075390816D-05  .207605120959D-01  .781193375587D-05  .515360305786D+04
     .143840000000D+05  .335276126862D-06 -.267215948098D+01  .106170773506D-06
     .979909587179D+00  .233218750000D+03  .153307701026D+01 -.745959643642D-08
     .839320675361D-10  .100000000000D+01  .157600000000D+04  .000000000000D+00
     .240000000000D+01  .000000000000D+00 -.558793544769D-08  .360000000000D+02
     .720600000000D+04  .400000000000D+01
11 10  3 21  3 59 44.0 -.517833977938D-04 -.216004991671D-11  .000000000000D+00
     .320000000000D+02  .106250000000D+02  .599810698809D-08 -.157436591567D+01
     .489875674248D-06  .105228463653D-01  .921823084354D-05  .515372962379D+04
     .143840000000D+05  .253319740295D-06  .268375807775D+00 -.856816768646D-07
     .888989178813D+00  .161625000000D+03  .798027963811D+00 -.851749764511D-08
    -.355014787791D-09  .100000000000D+01  .157600000000D+04  .000000000000D+00
     .240000000000D+01  .000000000000D+00 -.116415321827D-07  .320000000000D+02
     .720600000000D+04  .400000000000D+01
22 10  3 21  3 59 44.0  .176446046680D-03 -.795807864051D-12  .000000000000D+00
     .300000000000D+02  .981250000000D+02  .507056835238D-08  .179207273068D+01
     .518001616001D-05  .510197784752D-02  .577419996262D-05  .515365992737D+04
     .143840000000D+05 -.763684511185D-07  .157506599658D+01 -.154599547386D-06
     .935591076449D+00  .253437500000D+03 -.191506069979D+01 -.841070748258D-08
     .202151277555D-09  .100000000000D+01  .157600000000D+04  .000000000000D+00
     .240000000000D+01  .000000000000D+00 -.176951289177D-07  .300000000000D+02
     .720600000000D+04  .400000000000D+01
27 10  3 21  3 59 44.0  .135937239975D-03  .329691829393D-11  .000000000000D+00
     .260000000000D+02 -.937187500000D+02  .414374403214D-08  .893978180042D+00
    -.518560409546D-05  .216400290374D-01  .835023820400D-05  .515365725136D+04
     .143840000000D+05 -.232830643654D-06 -.269680999148D+01 -.359490513802D-06
     .977930389217D+00  .237375000000D+03 -.144511351190D+01 -.816426864599D-08
    -.528593446610D-10  .100000000000D+01  .157600000000D+04  .000000000000D+00
     .240000000000D+01  .000000000000D+00 -.419095158577D-08  .260000000000D+02
     .720600000000D+04  .400000000000D+01
 2 10  3 21  4  0  0.0  .238413922489D-03  .386535248253D-11  .000000000000D+00
     .400000000000D+01  .262812500000D+02  .496270671665D-08  .166050051188D+00
     .124797224998D-05  .944430055097D-02  .101011246443D-04  .515379018784D+04
     .144000000000D+05  .167638063431D-06  .483473779035D+00 -.633299350739D-07
     .940459713168D+00  .175625000000D+03  .299527542892D+01 -.824320050525D-08
    -.383587406527D-09  .100000000000D+01  .157600000000D+04  .000000000000D+00
     .240000000000D+01  .000000000000D+00 -.172294676304D-07  .400000000000D+01
     .720600000000D+04  .400000000000D+01
 3 10  3 21  4  0  0.0  .530953519046D-03  .511590769747D-11  .000000000000D+00
     .350000000000D+02 -.215312500000D+02  .573809615759D-08  .564058933033D-01
    -.944361090660D-06  .129008055665D-01  .576861202717D-05  .515369201469D+04
     .144000000000D+05 -.577419996262D-07 -.667639637802D+00  .150874257088D-06
     .927098681930D+00  .248843750000D+03  .983968598219D+00 -.882429613878D-08
    -.172507185617D-09  .100000000000D+01  .157600000000D+04  .000000000000D+00
     .240000000000D+01  .000000000000D+00 -.419095158577D-08  .350000000000D+02
     .720600000000D+04  .400000000000D+01
 4 10  3 21  4  0  0.0  .415081158280D-04  .875388650456D-11  .000000000000D+00
     .290000000000D+02  .381562500000D+02  .475841249269D-08 -.307640396921D+01
     .187009572983D-05  .909585936461D-02  .104196369648D-04  .515365898323D+04
     .144000000000D+05 -.130385160446D-07  .501419686234D+00 -.126659870148D-06
     .939600254648D+00  .167718750000D+03  .601266851441D+00 -.790604360416D-08
    -.332156692802D-09  .100000000000D+01  .157600000000D+04  .000000000000D+00
     .240000000000D+01  .000000000000D+00 -.605359673500D-08  .290000000000D+02
     .720600000000D+04  .400000000000D+01
 5 10  3 21  4  0  0.0 -.310875475407D-05  .102318153949D-11  .000000000000D+00
     .180000000000D+02  .111000000000D+03  .449697303126D-08  .164686521862D+01
     .577047467232D-05  .189066014718D-02  .657886266708D-05  .515367525291D+04
     .144000000000D+05 -.745058059692D-08  .154290095135D+01 -.279396772385D-07
     .958885377036D+00  .251718750000D+03  .355035742264D+00 -.814319633967D-08
     .137505727665D-09  .100000000000D+01  .157600000000D+04  .000000000000D+00
     .240000000000D+01  .000000000000D+00 -.884756445885D-08  .180000000000D+02
     .720600000000D+04  .400000000000D+01
 6 10  3 21  4  0  0.0  .684608705342D-03 -.773070496507D-11  .000000000000D+00
     .100000000000D+03 -.264687500000D+02  .544558397329D-08  .230570845143D+01
    -.124424695969D-05  .613243761472D-02  .579282641411D-05  .515366041756D+04
     .144000000000D+05  .124797224998D-06 -.597586503579D+00 -.447034835815D-07
     .934513684097D+00  .248937500000D+03 -.112094665188D+01 -.839856411962D-08
    -.255367779950D-09  .100000000000D+01  .157600000000D+04  .000000000000D+00
     .240000000000D+01  .000000000000D+00 -.465661287308D-08  .100000000000D+03
     .720600000000D+04  .400000000000D+01
 8 10  3 21  4  0  0.0  .427663326263D-05  .341060513165D-12  .000000000000D+00
     .100000000000D+03 -.852500000000D+02  .369336812932D-08 -.208459139590D+01
    -.452063977718D-05  .109593661036D-01  .960007309914D-05  .515371400642D+04
     .144000000000D+05 -.782310962677D-07 -.257380742098D+01 -.199303030968D-06
     .992403342063D+00  .213593750000D+03  .309266989933D+01 -.762460330962D-08
     .142863093678D-09  .100000000000D+01  .157600000000D+04  .000000000000D+00
     .340000000000D+01  .000000000000D+00 -.419095158577D-08  .100000000000D+03
     .720600000000D+04  .400000000000D+01
10 10  3 21  4  0  0.0 -.383476726711D-04 -.909494701773D-12  .000000000000D+00
     .910000000000D+02  .117625000000D+03  .468912389226D-08  .168550886092D+01
     .603310763836D-05  .916674477048D-02  .635534524918D-05  .515347653770D+04
     .144000000000D+05 -.141561031342D-06  .156905726684D+01  .465661287308D-07
     .953918840377D+00  .254218750000D+03  .662503360221D+00 -.830534595100D-08
     .105718689322D-09  .100000000000D+01  .157600000000D+04  .000000000000D+00
     .485000000000D+01  .000000000000D+00 -.279396772385D-08  .910000000000D+02
     .720600000000D+04  .400000000000D+01
